[{"OBJECT_NAME":"DONGPO 10","OBJECT_ID":"2022-167H","EPOCH":"2026-03-09T22:44:56.137344","MEAN_MOTION":15.322785,"ECCENTRICITY":0.00061655,"INCLINATION":97.685,"RA_OF_ASC_NODE":235.0962,"ARG_OF_PERICENTER":106.9526,"MEAN_ANOMALY":253.2392,"EPHEMERIS_TYPE":0,"CLASSIFICATION_TYPE":"U","NORAD_CAT_ID":54689,"ELEMENT_SET_NO":999,"REV_AT_EPOCH":18015,"BSTAR":0.00049390523,"MEAN_MOTION_DOT":0.00015333,"MEAN_MOTION_DDOT":0},{"OBJECT_NAME":"STARLINK-34554","OBJECT_ID":"2025-139Z","EPOCH":"2026-03-09T13:02:26.219328","MEAN_MOTION":15.30189966,"ECCENTRICITY":0.00011852,"INCLINATION":53.1599,"RA_OF_ASC_NODE":127.5782,"ARG_OF_PERICENTER":80.7338,"MEAN_ANOMALY":279.3796,"EPHEMERIS_TYPE":0,"CLASSIFICATION_TYPE":"U","NORAD_CAT_ID":64687,"ELEMENT_SET_NO":999,"REV_AT_EPOCH":4026,"BSTAR":0.0006940519,"MEAN_MOTION_DOT":0.00020246,"MEAN_MOTION_DDOT":0}]
